OBJECT_NAME,OBJECT_ID,EPOCH,MEAN_MOTION,ECCENTRICITY,INCLINATION,RA_OF_ASC_NODE,ARG_OF_PERICENTER,MEAN_ANOMALY,EPHEMERIS_TYPE,CLASSIFICATION_TYPE,NORAD_CAT_ID,ELEMENT_SET_NO,REV_AT_EPOCH,BSTAR,MEAN_MOTION_DOT,MEAN_MOTION_DDOT
COSMO-SKYMED 1,2007-023A,2026-07-06T20:25:55.015680,14.97195202,.000102,97.8850,19.8735,88.5242,271.6096,0,U,31598,999,3273,.16249E-3,.1819E-4,0
COSMOS 2428,2007-029A,2026-07-06T16:24:03.174048,14.12930331,.0007163,70.9381,313.5420,97.6151,262.5784,0,U,31792,999,98090,.10524E-3,.148E-5,0
SL-16 R/B,2007-029B,2026-07-06T16:52:27.007104,14.14851300,.0002228,70.9758,282.2041,259.2695,211.8591,0,U,31793,999,98220,-.74606E-4,-.192E-5,0
KORONAS-FOTON,2009-003A,2026-07-06T21:14:58.554816,15.46154532,.0012557,82.4300,151.7046,87.5241,272.7445,0,U,33504,999,96414,.16064E-3,.7937E-4,0
CZ-2C R/B,2011-030B,2026-07-06T12:04:23.812032,14.81519616,.0051347,97.8663,142.5419,325.1191,151.3776,0,U,37731,999,80768,.15329E-3,.1174E-4,0
H-2A R/B,2012-025E,2026-07-06T16:34:22.206720,14.95818247,.0042117,98.4843,164.4459,283.7589,75.8944,0,U,38341,999,76600,.26025E-3,.2886E-4,0
SHIJIAN-16 (SJ-16),2013-057A,2026-07-06T21:04:32.521152,14.92655437,.0016108,74.9743,319.3868,184.9371,175.1662,0,U,39358,999,68928,.12904E-3,.1304E-4,0
SL-4 R/B,2014-021B,2026-07-06T04:19:48.049536,15.42352336,.00901598,51.6061,117.6981,175.3338,184.8508,0,U,39679,999,67454,.20258967E-3,.9839E-4,0
ALOS-2,2014-029A,2026-07-06T19:41:16.797984,14.79470205,.0001582,97.9223,284.7036,91.8245,268.3148,0,U,39766,999,65448,.24289E-3,.1763E-4,0
YAOGAN-29,2015-069A,2026-07-06T21:04:52.691232,14.83100194,.0001396,98.0019,216.5413,23.2235,336.9041,0,U,41038,999,57354,-.15341E-4,-.179E-5,0
ASTRO-H (HITOMI),2016-012A,2026-07-06T09:29:14.796096,15.10606646,.00095437,31.0000,310.1299,86.2299,273.9431,0,U,41337,999,57019,.1747209E-3,.3056E-4,0
HXMT (HUIYAN),2017-034A,2026-07-06T20:48:30.748320,15.18636573,.0032771,43.0141,73.4464,270.0489,89.6604,0,U,42758,999,50065,.16671E-3,.3318E-4,0
SAOCOM 1A,2018-076A,2026-07-06T20:22:42.532032,14.82163652,.0001519,97.8888,14.3118,79.5987,280.5398,0,U,43641,999,41901,.40184E-4,.268E-5,0
H-2A R/B,2018-084L,2026-07-06T17:53:27.972096,15.45963852,.0021027,98.8544,70.9182,331.7008,28.3092,0,U,43682,999,42414,.34746E-3,.16966E-3,0
SAOCOM 1B,2020-059A,2026-07-06T19:30:28.410912,14.82156548,.0001596,97.8892,13.3717,81.3877,278.7517,0,U,46265,999,31639,.14952E-3,.1138E-4,0
CSS (TIANHE),2021-035A,2026-07-06T11:56:11.415840,15.58009548,.0002947,41.4676,204.5488,273.1350,86.9151,0,U,48274,999,29618,.1548E-3,.11627E-3,0
COSMOS 2550,2021-056A,2026-07-06T15:38:24.922176,15.33769080,.00084299,67.1432,41.0273,272.3999,87.6191,0,U,48865,999,28170,.14569452E-3,.4595E-4,0
CZ-2C R/B,2022-058K,2026-07-06T01:03:00.945216,15.63290384,.00310754,50.1852,65.3044,344.7676,15.2360,0,U,52794,999,22859,.47409114E-3,.45252E-3,0
CZ-2C R/B,2022-132E,2026-07-06T13:24:48.927168,15.74077379,.0011399,97.2898,195.4804,18.3643,341.8031,0,U,54039,999,20899,.42127E-3,.60423E-3,0
GSLV R/B,2022-138AN,2026-07-06T15:11:08.274624,14.97354081,.0024164,87.3813,126.4542,80.1189,280.2769,0,U,54149,999,20172,.26078E-3,.3073E-4,0
XRISM,2023-137A,2026-07-06T12:37:36.395616,15.12631514,.0007794,31.0012,234.3179,159.2962,200.7994,0,U,57800,999,15579,.18768E-3,.3461E-4,0
ACS3,2024-077B,2026-07-06T17:18:04.148640,13.95236626,.0113209,97.1718,102.1729,46.1559,314.8897,0,U,59588,999,11076,.26167E-1,.37453E-3,0
SPACEMOBILE-003,2024-163A,2026-06-26T19:29:47.816736,15.20822722,.0005991,52.9744,265.1828,141.0621,219.0806,0,U,61045,999,9923,.90246E-4,.1689E-4,0
SPACEMOBILE-005,2024-163B,2026-07-06T07:47:25.125504,15.20800178,.00092973,52.9788,221.3760,169.9979,190.1202,0,U,61046,999,10067,-.17864937E-3,-.4321E-4,0
SPACEMOBILE-001,2024-163C,2026-07-06T14:03:53.754048,15.20820517,.0007438,52.9741,219.8899,169.1843,190.9313,0,U,61047,999,10071,.99523E-4,.1897E-4,0
SPACEMOBILE-002,2024-163D,2026-07-06T13:40:56.380800,15.20857755,.0006454,52.9753,220.0040,165.9423,194.1752,0,U,61048,999,10071,.20708E-3,.4308E-4,0
SPACEMOBILE-004,2024-163E,2026-07-05T21:29:19.575744,15.20802887,.00071224,52.9649,222.8932,193.0409,167.0402,0,U,61049,999,10061,.71381053E-3,.15654E-3,0
CZ-8A R/B,2025-231K,2026-07-06T14:48:16.868160,14.30160465,.0116517,50.0052,316.6543,292.4061,66.4545,0,U,66004,999,3772,.63952E-4,.16E-6,0
SZ-21 MODULE,2025-246C,2026-07-06T17:13:41.031264,15.78167802,.0006261,41.4706,185.5326,159.8969,200.2123,0,U,66515,999,3682,.2357E-3,.41467E-3,0
SPACEMOBILE-006,2025-309A,2026-07-06T10:59:32.468352,15.18641781,.0010687,52.9956,243.3614,186.7997,173.2853,0,U,67232,999,2952,.73867E-4,.1228E-4,0
